ORBCOMM FM37            
1 33064U 08031E   24322.08924866  .00003134  00000+0  45622-3 0  9996
2 33064  48.4398 270.8590 0005633 184.1508 239.0961 14.78192494882972
ORBCOMM FM40            
1 33065U 08031F   24321.36617831  .00004975  00000+0  67784-3 0  9995
2 33065  48.4417 261.5600 0007014 190.0832 314.3325 14.79994268883056
VESSELSAT 1             
1 37840U 11058C   24321.28381319  .00000502  00000+0  12919-3 0  9995
2 37840  19.9629 302.0889 0013629   5.4688 354.5864 14.11263203676199
ORBCOMM FM109           
1 40086U 14040A   24321.25102157  .00001768  00000+0  42155-3 0  9993
2 40086  47.0031 301.4540 0001741  32.1376 327.9615 14.57566454549993
ORBCOMM FM107           
1 40087U 14040B   24322.65896867  .00001639  00000+0  39387-3 0  9997
2 40087  47.0059 295.8369 0001437   2.9172 357.1722 14.57505786550313
ORBCOMM FM106           
1 40088U 14040C   24321.81957038  .00001968  00000+0  36896-3 0  9990
2 40088  47.0578 138.6401 0017666 163.9279 196.2175 14.68294865552465
ORBCOMM FM111           
1 40089U 14040D   24322.60065505  .00004357  00000+0  53772-3 0  9995
2 40089  47.0043  12.7630 0032641 262.7540  96.9645 14.84002067558775
ORBCOMM FM104           
1 40090U 14040E   24321.73329838  .00001499  00000+0  37515-3 0  9993
2 40090  47.0062 331.3069 0017555 313.3463  46.5958 14.55950429549756
